NORAD_CAT_ID,OBJECT_NAME,OBJECT_TYPE,EPOCH,MEAN_MOTION,ECCENTRICITY,INCLINATION,RA_OF_ASC_NODE,ARG_OF_PERICENTER,MEAN_ANOMALY,BSTAR,MEAN_MOTION_DOT,MEAN_MOTION_DDOT,TLE_LINE0,TLE_LINE1,TLE_LINE2,SEMIMAJOR_AXIS,PERIOD,APOGEE,PERIGEE,DECAYED
56807.0,STARLINK-6073,PAYLOAD,2024-01-08 19:45:52,14.98332472,0.0003053,70.0001,158.3398,269.0669,91.014,2.7739e-05,2.38e-06,0.0,0 STARLINK-6073,1 56807U 23078AS  24008.82352978  .00000238  00000-0  27739-4 0  9999,2 56807  70.0001 158.3398 0003053 269.0669  91.0140 14.98332472 34715,6950.185,96.107,574.172,569.928,0.0
56807.0,STARLINK-6073,PAYLOAD,2024-01-09 11:47:13,14.98332952,0.0003047,70.0002,156.6564,266.4648,93.6162,-8.0077e-06,-1.89e-06,0.0,0 STARLINK-6073,1 56807U 23078AS  24009.49112893 -.00000189  00000-0 -80077-5 0  9995,2 56807  70.0002 156.6564 0003047 266.4648  93.6162 14.98332952 35078,6950.184,96.107,574.166,569.931,0.0
56807.0,STARLINK-6073,PAYLOAD,2024-01-09 13:23:21,14.98332801,0.000305,70.0002,156.4881,266.4388,93.6422,-9.5039e-06,-2.06e-06,0.0,0 STARLINK-6073,1 56807U 23078AS  24009.55788892 -.00000206  00000-0 -95039-5 0  9994,2 56807  70.0002 156.4881 0003050 266.4388  93.6422 14.98332801 34827,6950.184,96.107,574.169,569.929,0.0
56807.0,STARLINK-6073,PAYLOAD,2024-01-09 19:47:53,14.9833731,0.0003003,70.0003,155.8147,264.4649,95.6167,4.2399e-05,4.13e-06,0.0,0 STARLINK-6073,1 56807U 23078AS  24009.82492351  .00000413  00000-0  42399-4 0  9994,2 56807  70.0003 155.8147 0003003 264.4649  95.6167 14.98337310 34864,6950.17,96.107,574.122,569.948,0.0
56807.0,STARLINK-6073,PAYLOAD,2024-01-10 11:49:14,14.98326998,0.0002713,70.0009,154.1313,265.5551,94.5299,-2.4993e-05,-3.91e-06,0.0,0 STARLINK-6073,1 56807U 23078AS  24010.49253141 -.00000391  00000-0 -24993-4 0  9998,2 56807  70.0009 154.1313 0002713 265.5551  94.5299 14.98326998 35223,6950.202,96.107,573.953,570.182,0.0
56807.0,STARLINK-6073,PAYLOAD,2024-01-11 11:51:14,14.98335762,0.0002727,70.0007,151.6067,260.7574,99.3277,1.9642e-05,1.41e-06,0.0,0 STARLINK-6073,1 56807U 23078AS  24011.49392319  .00000141  00000-0  19642-4 0  9996,2 56807  70.0007 151.6067 0002727 260.7574  99.3277 14.98335762 35370,6950.175,96.107,573.935,570.145,0.0
56807.0,STARLINK-6073,PAYLOAD,2024-01-11 15:03:31,14.98336199,0.0002709,70.0008,151.2702,261.1267,98.9585,2.6351e-05,2.22e-06,0.0,0 STARLINK-6073,1 56807U 23078AS  24011.62744229  .00000222  00000-0  26351-4 0  9997,2 56807  70.0008 151.2702 0002709 261.1267  98.9585 14.98336199 35133,6950.174,96.107,573.922,570.156,0.0
56807.0,STARLINK-6073,PAYLOAD,2024-01-11 18:15:47,14.98336885,0.0002705,70.0008,150.9335,262.0038,98.0815,3.3464e-05,3.06e-06,0.0,0 STARLINK-6073,1 56807U 23078AS  24011.76096116  .00000306  00000-0  33464-4 0  9993,2 56807  70.0008 150.9335 0002705 262.0038  98.0815 14.98336885 35154,6950.172,96.107,573.917,570.157,0.0
56807.0,STARLINK-6073,PAYLOAD,2024-01-12 10:17:08,14.98323117,0.00026,70.0011,149.2508,256.8823,103.2046,-6.5558e-06,-1.71e-06,0.0,0 STARLINK-6073,1 56807U 23078AS  24012.42857024 -.00000171  00000-0 -65558-5 0  9992,2 56807  70.0011 149.2508 0002600 256.8823 103.2046 14.98323117 35517,6950.214,96.107,573.886,570.272,0.0
56807.0,STARLINK-6073,PAYLOAD,2024-01-12 13:29:24,14.98320374,0.0002637,70.0009,148.9142,256.6338,103.4527,-3.2193e-05,-4.77e-06,0.0,0 STARLINK-6073,1 56807U 23078AS  24012.56209319 -.00000477  00000-0 -32193-4 0  9992,2 56807  70.0009 148.9142 0002637 256.6338 103.4527 14.98320374 35274,6950.223,96.108,573.92,570.255,0.0
56807.0,STARLINK-6073,PAYLOAD,2024-01-12 19:53:57,14.98320546,0.0002715,70.0007,148.2404,257.792,102.2935,-4.4303e-05,-6.21e-06,0.0,0 STARLINK-6073,1 56807U 23078AS  24012.82913479 -.00000621  00000-0 -44303-4 0  9997,2 56807  70.0007 148.2404 0002715 257.7920 102.2935 14.98320546 35318,6950.222,96.108,573.974,570.2,0.0
56807.0,STARLINK-6073,PAYLOAD,2024-01-13 11:55:17,14.9832914,0.0002762,70.0005,146.5575,259.8417,100.2431,-8.4193e-05,-1.097e-05,0.0,0 STARLINK-6073,1 56807U 23078AS  24013.49673202 -.00001097  00000-0 -84193-4 0  9997,2 56807  70.0005 146.5575 0002762 259.8417 100.2431 14.98329140 35679,6950.196,96.107,573.98,570.141,0.0
56807.0,STARLINK-6073,PAYLOAD,2024-01-13 13:31:25,14.98327053,0.0002883,70.0002,146.3883,258.6573,101.4262,-8.4495e-05,-1.101e-05,0.0,0 STARLINK-6073,1 56807U 23078AS  24013.56349324 -.00001101  00000-0 -84495-4 0  9991,2 56807  70.0002 146.3883 0002883 258.6573 101.4262 14.98327053 35429,6950.202,96.107,574.071,570.063,0.0
56807.0,STARLINK-6073,PAYLOAD,2024-01-13 18:19:50,14.98319119,0.0002828,70.0,145.8839,278.9789,81.105,-0.00019501,-2.418e-05,0.0,0 STARLINK-6073,1 56807U 23078AS  24013.76378348 -.00002418  00000-0 -19501-3 0  9998,2 56807  70.0000 145.8839 0002828 278.9789  81.1050 14.98319119 35710,6950.227,96.108,574.057,570.126,0.0
56807.0,STARLINK-6073,PAYLOAD,2024-01-14 13:33:27,14.98317125,0.0003328,69.9994,143.8611,285.0132,75.0659,2.6877e-05,2.28e-06,0.0,0 STARLINK-6073,1 56807U 23078AS  24014.56490372  .00000228  00000-0  26877-4 0  9999,2 56807  69.9994 143.8611 0003328 285.0132  75.0659 14.98317125 35578,6950.233,96.108,574.411,569.785,0.0
56807.0,STARLINK-6073,PAYLOAD,2024-01-14 18:21:51,14.98323725,0.0002457,70.001,143.3597,272.1196,87.9681,0.00010459,1.155e-05,0.0,0 STARLINK-6073,1 56807U 23078AS  24014.76517813  .00001155  00000-0  10459-3 0  9999,2 56807  70.0010 143.3597 0002457 272.1196  87.9681 14.98323725 35869,6950.212,96.107,573.785,570.37,0.0
56807.0,STARLINK-6073,PAYLOAD,2024-01-15 11:59:19,14.98335636,0.0002685,70.0006,141.507,269.6305,90.4547,0.00013748,1.548e-05,0.0,0 STARLINK-6073,1 56807U 23078AS  24015.49952765  .00001548  00000-0  13748-3 0  9999,2 56807  70.0006 141.5070 0002685 269.6305  90.4547 14.98335636 35972,6950.175,96.107,573.907,570.174,0.0
56807.0,STARLINK-6073,PAYLOAD,2024-01-15 13:35:27,14.9833534,0.0002911,70.0002,141.3398,266.6766,93.406,0.00011832,1.319e-05,0.0,0 STARLINK-6073,1 56807U 23078AS  24015.56628797  .00001319  00000-0  11832-3 0  9990,2 56807  70.0002 141.3398 0002911 266.6766  93.4060 14.98335340 35727,6950.176,96.107,574.065,570.018,0.0
56807.0,STARLINK-6073,PAYLOAD,2024-01-15 18:23:51,14.98339713,0.0002681,70.0008,140.8344,270.1321,89.9531,0.00017646,2.014e-05,0.0,0 STARLINK-6073,1 56807U 23078AS  24015.76656291  .00002014  00000-0  17646-3 0  9994,2 56807  70.0008 140.8344 0002681 270.1321  89.9531 14.98339713 35753,6950.163,96.106,573.891,570.165,0.0
56807.0,STARLINK-6073,PAYLOAD,2024-01-16 12:01:20,14.98327585,0.000222,70.0024,138.9839,255.7775,104.3137,-9.0555e-06,-2.01e-06,0.0,0 STARLINK-6073,1 56807U 23078AS  24016.50093490 -.00000201  00000-0 -90555-5 0  9993,2 56807  70.0024 138.9839 0002220 255.7775 104.3137 14.98327585 36129,6950.2,96.107,573.608,570.522,0.0
56807.0,STARLINK-6073,PAYLOAD,2024-01-16 13:37:28,14.98327697,0.0002345,70.0018,138.8152,252.6359,107.4544,-3.4176e-05,-5.01e-06,0.0,0 STARLINK-6073,1 56807U 23078AS  24016.56769522 -.00000501  00000-0 -34176-4 0  9994,2 56807  70.0018 138.8152 0002345 252.6359 107.4544 14.98327697 35872,6950.2,96.107,573.695,570.435,0.0
56807.0,STARLINK-6073,PAYLOAD,2024-01-16 18:25:53,14.98325867,0.0002269,70.0019,138.311,254.6703,105.4206,-6.8628e-05,-9.11e-06,0.0,0 STARLINK-6073,1 56807U 23078AS  24016.76797786 -.00000911  00000-0 -68628-4 0  9993,2 56807  70.0019 138.3110 0002269 254.6703 105.4206 14.98325867 35906,6950.206,96.107,573.648,570.494,0.0
56807.0,STARLINK-6073,PAYLOAD,2024-01-16 21:38:08,14.98339056,0.0003246,69.9996,137.9725,275.092,84.9868,3.246e-05,2.94e-06,0.0,0 STARLINK-6073,1 56807U 23078AS  24016.90148547  .00000294  00000-0  32460-4 0  9991,2 56807  69.9996 137.9725 0003246 275.0920  84.9868 14.98339056 36189,6950.165,96.106,574.286,569.774,0.0
56807.0,STARLINK-6073,PAYLOAD,2024-01-17 12:03:21,14.98329688,0.0003006,70.0002,136.4571,276.9575,83.1242,-0.00014704,-1.847e-05,0.0,0 STARLINK-6073,1 56807U 23078AS  24017.50233617 -.00001847  00000-0 -14704-3 0  9998,2 56807  70.0002 136.4571 0003006 276.9575  83.1242 14.98329688 36270,6950.194,96.107,574.148,569.97,0.0
56807.0,STARLINK-6073,PAYLOAD,2024-01-17 13:39:29,14.983304,0.0002874,70.0006,136.2889,278.5904,81.4929,-0.00012165,-1.544e-05,0.0,0 STARLINK-6073,1 56807U 23078AS  24017.56909519 -.00001544  00000-0 -12165-3 0  9998,2 56807  70.0006 136.2889 0002874 278.5904  81.4929 14.98330400 36020,6950.192,96.107,574.054,570.059,0.0
56807.0,STARLINK-6073,PAYLOAD,2024-01-17 16:51:45,14.98338578,0.0002954,70.0003,135.9552,264.4947,95.5875,-8.197e-05,-1.071e-05,0.0,0 STARLINK-6073,1 56807U 23078AS  24017.70260681 -.00001071  00000-0 -81970-4 0  9990,2 56807  70.0003 135.9552 0002954 264.4947  95.5875 14.98338578 36301,6950.166,96.106,574.084,569.978,0.0
56807.0,STARLINK-6073,PAYLOAD,2024-01-18 12:05:22,14.98325014,0.0003031,70.0008,133.9351,267.1708,92.9104,8.0425e-05,8.67e-06,0.0,0 STARLINK-6073,1 56807U 23078AS  24018.50373022  .00000867  00000-0  80425-4 0  9997,2 56807  70.0008 133.9351 0003031 267.1708  92.9104 14.98325014 36423,6950.208,96.107,574.18,569.967,0.0
56807.0,STARLINK-6073,PAYLOAD,2024-01-18 13:41:30,14.98327094,0.0002957,70.0004,133.7653,263.8719,96.2103,5.8042e-05,6e-06,0.0,0 STARLINK-6073,1 56807U 23078AS  24018.57048931  .00000600  00000-0  58042-4 0  9997,2 56807  70.0004 133.7653 0002957 263.8719  96.2103 14.98327094 36171,6950.202,96.107,574.122,570.012,0.0
56807.0,STARLINK-6073,PAYLOAD,2024-01-18 16:53:46,14.98329398,0.0002746,70.0009,133.4294,262.6861,97.3986,5.7663e-05,5.95e-06,0.0,0 STARLINK-6073,1 56807U 23078AS  24018.70400831  .00000595  00000-0  57663-4 0  9994,2 56807  70.0009 133.4294 0002746 262.6861  97.3986 14.98329398 36197,6950.195,96.107,573.968,570.151,0.0
56807.0,STARLINK-6073,PAYLOAD,2024-01-19 12:07:23,14.98331874,0.000267,70.0015,131.4116,252.1709,107.9159,1.1135e-05,4e-07,0.0,0 STARLINK-6073,1 56807U 23078AS  24019.50512740  .00000040  00000-0  11135-4 0  9995,2 56807  70.0015 131.4116 0002670 252.1709 107.9159 14.98331874 36570,6950.187,96.107,573.908,570.196,0.0
